[
    {
        "Altitude(m)": 607911.025787928,
        "Argument of Periapsis(deg)": 0.0,
        "Eccentricity": 0.0,
        "Inclination(deg)": 60.0,
        "Latitude(deg)": -14.293038668191604,
        "Longitude(deg)": -81.55734704222164,
        "Mean Anomaly(deg)": -163.63640000000004,
        "RAAN(deg)": 190.0,
        "Satellite Name": "Test1 848",
        "Satellite Number": 848,
        "Semi-Major Axis(m)": 6980739.136638005,
        "Time(s)": 0
    },
    {
        "Altitude(m)": 608060.2599318702,
        "Argument of Periapsis(deg)": 0.00010418945913296404,
        "Eccentricity": 0.0,
        "Inclination(deg)": 60.0,
        "Latitude(deg)": -14.82669995491601,
        "Longitude(deg)": -81.26873726550997,
        "Mean Anomaly(deg)": -163.0162938545382,
        "RAAN(deg)": 189.99957995086027,
        "Satellite Name": "Test1 848",
        "Satellite Number": 848,
        "Semi-Major Axis(m)": 6980739.136638005,
        "Time(s)": 10
    }
]